{
  "type": "FeatureCollection",
  "features": [
    {
      "type": "Feature",
      "properties": {
        "norad_id": 66848,
        "name": "STARLINK-36091",
        "group": "last-30-days",
        "lat": -40.864220225661384,
        "lon": 4.962104617192594,
        "alt_km": 351.9520995159355,
        "timestamp": "2025-12-20T18:51:30.447597+00:00",
        "meta_object_name": "STARLINK-36091",
        "meta_object_id": "2025-281A",
        "meta_epoch": "2025-12-20T14:00:03.000384",
        "meta_mean_motion": 15.74145947,
        "meta_eccentricity": 8.934e-05,
        "meta_inclination": 43.0009,
        "meta_ra_of_asc_node": 74.3733,
        "meta_arg_of_pericenter": 275.2393,
        "meta_mean_anomaly": 303.0269,
        "meta_ephemeris_type": 0,
        "meta_classification_type": "U",
        "meta_norad_cat_id": 66848,
        "meta_element_set_no": 999,
        "meta_rev_at_epoch": 265,
        "meta_bstar": -0.014586018,
        "meta_mean_motion_dot": -0.01876465,
        "meta_mean_motion_ddot": 0,
        "tle_line1": "1 66848U 25281A   25354.58336806 -.01876465  00000+0 -14586-1 0  9991",
        "tle_line2": "2 66848  43.0009  74.3733 0000893 275.2393 303.0269 15.74145947  2651"
      },
      "geometry": {
        "type": "Point",
        "coordinates": [
          4.962104617192594,
          -40.864220225661384
        ]
      }
    },
    {
      "type": "Feature",
      "properties": {
        "norad_id": 66849,
        "name": "STARLINK-36102",
        "group": "last-30-days",
        "lat": -40.35362912523643,
        "lon": 7.387631848902332,
        "alt_km": 351.89569058301277,
        "timestamp": "2025-12-20T18:51:30.447608+00:00",
        "meta_object_name": "STARLINK-36102",
        "meta_object_id": "2025-281B",
        "meta_epoch": "2025-12-20T14:00:03.000384",
        "meta_mean_motion": 15.7414672,
        "meta_eccentricity": 9.471e-05,
        "meta_inclination": 43.001,
        "meta_ra_of_asc_node": 74.368,
        "meta_arg_of_pericenter": 275.4086,
        "meta_mean_anomaly": 304.7742,
        "meta_ephemeris_type": 0,
        "meta_classification_type": "U",
        "meta_norad_cat_id": 66849,
        "meta_element_set_no": 999,
        "meta_rev_at_epoch": 265,
        "meta_bstar": -0.014590376,
        "meta_mean_motion_dot": -0.01877051,
        "meta_mean_motion_ddot": 0,
        "tle_line1": "1 66849U 25281B   25354.58336806 -.01877051  00000+0 -14590-1 0  9999",
        "tle_line2": "2 66849  43.0010  74.3680 0000947 275.4086 304.7742 15.74146720  2650"
      },
      "geometry": {
        "type": "Point",
        "coordinates": [
          7.387631848902332,
          -40.35362912523643
        ]
      }
    },
    {
      "type": "Feature",
      "properties": {
        "norad_id": 66850,
        "name": "STARLINK-36105",
        "group": "last-30-days",
        "lat": -39.79278186805897,
        "lon": 9.77538650314069,
        "alt_km": 351.869561748681,
        "timestamp": "2025-12-20T18:51:30.447618+00:00",
        "meta_object_name": "STARLINK-36105",
        "meta_object_id": "2025-281C",
        "meta_epoch": "2025-12-20T14:00:03.000384",
        "meta_mean_motion": 15.74148095,
        "meta_eccentricity": 9.451e-05,
        "meta_inclination": 43.0009,
        "meta_ra_of_asc_node": 74.3634,
        "meta_arg_of_pericenter": 279.1305,
        "meta_mean_anomaly": 302.9699,
        "meta_ephemeris_type": 0,
        "meta_classification_type": "U",
        "meta_norad_cat_id": 66850,
        "meta_element_set_no": 999,
        "meta_rev_at_epoch": 265,
        "meta_bstar": -0.014618947,
        "meta_mean_motion_dot": -0.01880332,
        "meta_mean_motion_ddot": 0,
        "tle_line1": "1 66850U 25281C   25354.58336806 -.01880332  00000+0 -14619-1 0  9999",
        "tle_line2": "2 66850  43.0009  74.3634 0000945 279.1305 302.9699 15.74148095  2650"
      },
      "geometry": {
        "type": "Point",
        "coordinates": [
          9.77538650314069,
          -39.79278186805897
        ]
      }
    },
    {
      "type": "Feature",
      "properties": {
        "norad_id": 66851,
        "name": "STARLINK-36094",
        "group": "last-30-days",
        "lat": -39.18408374772058,
        "lon": 12.120765489473113,
        "alt_km": 351.8209973647172,
        "timestamp": "2025-12-20T18:51:30.447633+00:00",
        "meta_object_name": "STARLINK-36094",
        "meta_object_id": "2025-281D",
        "meta_epoch": "2025-12-20T14:00:03.000384",
        "meta_mean_motion": 15.74155217,
        "meta_eccentricity": 9.663e-05,
        "meta_inclination": 43.0007,
        "meta_ra_of_asc_node": 74.3588,
        "meta_arg_of_pericenter": 279.2844,
        "meta_mean_anomaly": 304.7275,
        "meta_ephemeris_type": 0,
        "meta_classification_type": "U",
        "meta_norad_cat_id": 66851,
        "meta_element_set_no": 999,
        "meta_rev_at_epoch": 265,
        "meta_bstar": -0.014680404,
        "meta_mean_motion_dot": -0.01887703,
        "meta_mean_motion_ddot": 0,
        "tle_line1": "1 66851U 25281D   25354.58336806 -.01887703  00000+0 -14680-1 0  9997",
        "tle_line2": "2 66851  43.0007  74.3588 0000966 279.2844 304.7275 15.74155217  2653"
      },
      "geometry": {
        "type": "Point",
        "coordinates": [
          12.120765489473113,
          -39.18408374772058
        ]
      }
    },
    {
      "type": "Feature",
      "properties": {
        "norad_id": 66852,
        "name": "STARLINK-35992",
        "group": "last-30-days",
        "lat": -38.52800251007477,
        "lon": 14.428669267653326,
        "alt_km": 351.7173056343763,
        "timestamp": "2025-12-20T18:51:30.447643+00:00",
        "meta_object_name": "STARLINK-35992",
        "meta_object_id": "2025-281E",
        "meta_epoch": "2025-12-20T14:00:03.000384",
        "meta_mean_motion": 15.74142778,
        "meta_eccentricity": 0.0001122,
        "meta_inclination": 43.0009,
        "meta_ra_of_asc_node": 74.3538,
        "meta_arg_of_pericenter": 279.4221,
        "meta_mean_anomaly": 306.5149,
        "meta_ephemeris_type": 0,
        "meta_classification_type": "U",
        "meta_norad_cat_id": 66852,
        "meta_element_set_no": 999,
        "meta_rev_at_epoch": 265,
        "meta_bstar": -0.01458898,
        "meta_mean_motion_dot": -0.0187676,
        "meta_mean_motion_ddot": 0,
        "tle_line1": "1 66852U 25281E   25354.58336806 -.01876760  00000+0 -14589-1 0  9997",
        "tle_line2": "2 66852  43.0009  74.3538 0001122 279.4221 306.5149 15.74142778  2655"
      },
      "geometry": {
        "type": "Point",
        "coordinates": [
          14.428669267653326,
          -38.52800251007477
        ]
      }
    },
    {
      "type": "Feature",
      "properties": {
        "norad_id": 66853,
        "name": "STARLINK-35986",
        "group": "last-30-days",
        "lat": -37.82715919043172,
        "lon": 16.692956744822055,
        "alt_km": 351.64581162455397,
        "timestamp": "2025-12-20T18:51:30.447655+00:00",
        "meta_object_name": "STARLINK-35986",
        "meta_object_id": "2025-281F",
        "meta_epoch": "2025-12-20T14:00:03.000384",
        "meta_mean_motion": 15.7414647,
        "meta_eccentricity": 0.00012024,
        "meta_inclination": 43.0007,
        "meta_ra_of_asc_node": 74.3493,
        "meta_arg_of_pericenter": 277.1075,
        "meta_mean_anomaly": 310.7453,
        "meta_ephemeris_type": 0,
        "meta_classification_type": "U",
        "meta_norad_cat_id": 66853,
        "meta_element_set_no": 999,
        "meta_rev_at_epoch": 265,
        "meta_bstar": -0.014630244,
        "meta_mean_motion_dot": -0.01881692,
        "meta_mean_motion_ddot": 0,
        "tle_line1": "1 66853U 25281F   25354.58336806 -.01881692  00000+0 -14630-1 0  9995",
        "tle_line2": "2 66853  43.0007  74.3493 0001202 277.1075 310.7453 15.74146470  2653"
      },
      "geometry": {
        "type": "Point",
        "coordinates": [
          16.692956744822055,
          -37.82715919043172
        ]
      }
    },
    {
      "type": "Feature",
      "properties": {
        "norad_id": 66854,
        "name": "STARLINK-36087",
        "group": "last-30-days",
        "lat": -37.08382374359803,
        "lon": 18.912806902995182,
        "alt_km": 351.6001875947568,
        "timestamp": "2025-12-20T18:51:30.447664+00:00",
        "meta_object_name": "STARLINK-36087",
        "meta_object_id": "2025-281G",
        "meta_epoch": "2025-12-20T14:00:03.000384",
        "meta_mean_motion": 15.74148444,
        "meta_eccentricity": 0.00012501,
        "meta_inclination": 43.0007,
        "meta_ra_of_asc_node": 74.3443,
        "meta_arg_of_pericenter": 274.9267,
        "meta_mean_anomaly": 314.8427,
        "meta_ephemeris_type": 0,
        "meta_classification_type": "U",
        "meta_norad_cat_id": 66854,
        "meta_element_set_no": 999,
        "meta_rev_at_epoch": 265,
        "meta_bstar": -0.014652448,
        "meta_mean_motion_dot": -0.01884348,
        "meta_mean_motion_ddot": 0,
        "tle_line1": "1 66854U 25281G   25354.58336806 -.01884348  00000+0 -14652-1 0  9991",
        "tle_line2": "2 66854  43.0007  74.3443 0001250 274.9267 314.8427 15.74148444  2659"
      },
      "geometry": {
        "type": "Point",
        "coordinates": [
          18.912806902995182,
          -37.08382374359803
        ]
      }
    }
  ]
}